[{"OBJECT_NAME":"STARLINK-4001","OBJECT_ID":"2022-052AG","EPOCH":"2026-03-09T23:06:11.215584","MEAN_MOTION":15.08829257,"ECCENTRICITY":0.00011292,"INCLINATION":53.2171,"RA_OF_ASC_NODE":282.8956,"ARG_OF_PERICENTER":97.8534,"MEAN_ANOMALY":262.2586,"EPHEMERIS_TYPE":0,"CLASSIFICATION_TYPE":"U","NORAD_CAT_ID":52628,"ELEMENT_SET_NO":999,"REV_AT_EPOCH":21082,"BSTAR":8.6178989e-5,"MEAN_MOTION_DOT":1.084e-5,"MEAN_MOTION_DDOT":0},{"OBJECT_NAME":"LEMUR-2-KREMPEL-BRO1","OBJECT_ID":"2025-061G","EPOCH":"2026-03-09T22:19:45.751296","MEAN_MOTION":15.13773226,"ECCENTRICITY":0.0017497,"INCLINATION":97.5535,"RA_OF_ASC_NODE":45.5283,"ARG_OF_PERICENTER":227.946,"MEAN_ANOMALY":132.0284,"EPHEMERIS_TYPE":0,"CLASSIFICATION_TYPE":"U","NORAD_CAT_ID":63357,"ELEMENT_SET_NO":999,"REV_AT_EPOCH":5261,"BSTAR":0.00031891713,"MEAN_MOTION_DOT":5.707e-5,"MEAN_MOTION_DDOT":0}]
